[{"OBJECT_NAME":"STARLINK-32143","OBJECT_ID":"2024-132U","EPOCH":"2026-03-09T06:36:13.118976","MEAN_MOTION":15.30188061,"ECCENTRICITY":0.00012891,"INCLINATION":53.1612,"RA_OF_ASC_NODE":54.5906,"ARG_OF_PERICENTER":100.8585,"MEAN_ANOMALY":259.2561,"EPHEMERIS_TYPE":0,"CLASSIFICATION_TYPE":"U","NORAD_CAT_ID":60296,"ELEMENT_SET_NO":999,"REV_AT_EPOCH":9149,"BSTAR":-1.2130628e-5,"MEAN_MOTION_DOT":-7.18e-6,"MEAN_MOTION_DDOT":0},{"OBJECT_NAME":"CZ-6A DEB","OBJECT_ID":"2024-140BH","EPOCH":"2026-03-09T12:42:23.031936","MEAN_MOTION":15.05550408,"ECCENTRICITY":0.0121353,"INCLINATION":89.148,"RA_OF_ASC_NODE":290.4372,"ARG_OF_PERICENTER":169.3672,"MEAN_ANOMALY":191.0177,"EPHEMERIS_TYPE":0,"CLASSIFICATION_TYPE":"U","NORAD_CAT_ID":60656,"ELEMENT_SET_NO":999,"REV_AT_EPOCH":8464,"BSTAR":0.002338,"MEAN_MOTION_DOT":0.00039913,"MEAN_MOTION_DDOT":0}]
